COMMENT,ORIGINATOR,NORAD_CAT_ID,OBJECT_NAME,OBJECT_TYPE,CLASSIFICATION_TYPE,INTLDES,EPOCH,EPOCH_MICROSECONDS,MEAN_MOTION,ECCENTRICITY,INCLINATION,RA_OF_ASC_NODE,ARG_OF_PERICENTER,MEAN_ANOMALY,EPHEMERIS_TYPE,ELEMENT_SET_NO,REV_AT_EPOCH,BSTAR,MEAN_MOTION_DOT,MEAN_MOTION_DDOT,FILE,TLE_LINE0,TLE_LINE1,TLE_LINE2,OBJECT_ID,OBJECT_NUMBER,SEMIMAJOR_AXIS,PERIOD,APOGEE,PERIGEE,DECAYED
GENERATED VIA SPACETRACK.ORG API,18 SPCS,57309,STARLINK-30163,PAYLOAD,U,23096V,2025-04-25 18:29:07,819296,15.15296141,0.0010871,42.9968,143.0688,72.9013,287.3024,0,999,9897,0.0035293,0.00068163,0,4712412,0 STARLINK-30163,1 57309U 23096V   25115.77022939  .00068163  00000-0  35293-2 0  9995,2 57309  42.9968 143.0688 0010871  72.9013 287.3024 15.15296141 98977,2023-096V,57309,6898.217,95.031,527.581,512.583,1
GENERATED VIA SPACETRACK.ORG API,18 SPCS,57309,STARLINK-30163,PAYLOAD,U,23096V,2025-04-26 08:43:23,363040,15.15383995,0.001076,42.9975,139.7789,77.0249,283.1799,0,999,9903,0.0037329,0.00072328,0,4713273,0 STARLINK-30163,1 57309U 23096V   25116.36346485  .00072328  00000-0  37329-2 0  9996,2 57309  42.9975 139.7789 0010760  77.0249 283.1799 15.15383995 99038,2023-096V,57309,6897.950,95.025,527.237,512.393,1
GENERATED VIA SPACETRACK.ORG API,18 SPCS,57309,STARLINK-30163,PAYLOAD,U,23096V,2025-04-26 08:43:23,363040,15.15383995,0.001076,42.9975,139.7789,77.0249,283.1799,0,999,9906,0.0037329,0.00072328,0,4713460,0 STARLINK-30163,1 57309U 23096V   25116.36346485  .00072328  00000-0  37329-2 0  9996,2 57309  42.9975 139.7789 0010760  77.0249 283.1799 15.15383995 99061,2023-096V,57309,6897.950,95.025,527.237,512.393,1
GENERATED VIA SPACETRACK.ORG API,18 SPCS,57309,STARLINK-30163,PAYLOAD,U,23096V,2025-04-27 08:27:02,342016,15.15543451,0.0010834,42.9974,134.2975,84.671,275.5373,0,999,9918,0.0038308,0.00074594,0,4713904,0 STARLINK-30163,1 57309U 23096V   25117.35211044  .00074594  00000-0  38308-2 0  9993,2 57309  42.9974 134.2975 0010834  84.6710 275.5373 15.15543451 99187,2023-096V,57309,6897.466,95.015,526.804,511.858,1
GENERATED VIA SPACETRACK.ORG API,18 SPCS,57309,STARLINK-30163,PAYLOAD,U,23096V,2025-04-27 08:27:02,342016,15.15543451,0.0010834,42.9974,134.2975,84.671,275.5373,0,999,9921,0.0038308,0.00074594,0,4714063,0 STARLINK-30163,1 57309U 23096V   25117.35211044  .00074594  00000-0  38308-2 0  9993,2 57309  42.9974 134.2975 0010834  84.6710 275.5373 15.15543451 99211,2023-096V,57309,6897.466,95.015,526.804,511.858,1
GENERATED VIA SPACETRACK.ORG API,18 SPCS,57309,STARLINK-30163,PAYLOAD,U,23096V,2025-04-27 17:56:27,287520,15.15615134,0.0010942,42.9967,132.1056,88.0522,272.1578,0,999,9924,0.004127,0.00080613,0,4714180,0 STARLINK-30163,1 57309U 23096V   25117.74753805  .00080613  00000-0  41270-2 0  9993,2 57309  42.9967 132.1056 0010942  88.0522 272.1578 15.15615134 99240,2023-096V,57309,6897.249,95.011,526.661,511.567,1
GENERATED VIA SPACETRACK.ORG API,18 SPCS,57309,STARLINK-30163,PAYLOAD,U,23096V,2025-04-27 17:56:27,287520,15.15615134,0.0010942,42.9967,132.1056,88.0522,272.1578,0,999,9927,0.004127,0.00080613,0,4714383,0 STARLINK-30163,1 57309U 23096V   25117.74753805  .00080613  00000-0  41270-2 0  9993,2 57309  42.9967 132.1056 0010942  88.0522 272.1578 15.15615134 99273,2023-096V,57309,6897.249,95.011,526.661,511.567,1
GENERATED VIA SPACETRACK.ORG API,18 SPCS,57309,STARLINK-30163,PAYLOAD,U,23096V,2025-04-28 08:10:31,909440,15.15713209,0.0011039,42.9966,128.8151,92.8547,267.3564,0,999,9936,0.004354,0.00085356,0,4715285,0 STARLINK-30163,1 57309U 23096V   25118.34064710  .00085356  00000-0  43540-2 0  9991,2 57309  42.9966 128.8151 0011039  92.8547 267.3564 15.15713209 99361,2023-096V,57309,6896.951,95.005,526.430,511.203,1
GENERATED VIA SPACETRACK.ORG API,18 SPCS,57309,STARLINK-30163,PAYLOAD,U,23096V,2025-04-28 23:59:26,769696,15.15810025,0.0011097,42.9965,125.1604,97.4887,262.7222,0,999,9943,0.0037044,0.00072661,0,4715443,0 STARLINK-30163,1 57309U 23096V   25118.99961539  .00072661  00000-0  37044-2 0  9994,2 57309  42.9965 125.1604 0011097  97.4887 262.7222 15.15810025 99437,2023-096V,57309,6896.657,94.999,526.176,510.869,1
GENERATED VIA SPACETRACK.ORG API,18 SPCS,57309,STARLINK-30163,PAYLOAD,U,23096V,2025-05-01 05:45:17,207136,15.16147445,0.0012137,42.995,112.7267,116.0364,244.1734,0,999,9980,0.0037965,0.00075244,0,4716572,0 STARLINK-30163,1 57309U 23096V   25121.23978249  .00075244  00000-0  37965-2 0  9993,2 57309  42.9950 112.7267 0012137 116.0364 244.1734 15.16147445 99805,2023-096V,57309,6895.634,94.978,525.868,509.130,1
GENERATED VIA SPACETRACK.ORG API,18 SPCS,57309,STARLINK-30163,PAYLOAD,U,23096V,2025-05-01 23:08:46,406400,15.16292945,0.0011442,42.9978,108.7081,120.0235,240.1749,0,999,9988,0.0042842,0.00085395,0,4716061,0 STARLINK-30163,1 57309U 23096V   25121.96442600  .00085395  00000-0  42842-2 0  9998,2 57309  42.9978 108.7081 0011442 120.0235 240.1749 15.16292945 99880,2023-096V,57309,6895.193,94.968,524.948,509.169,1
GENERATED VIA SPACETRACK.ORG API,18 SPCS,57309,STARLINK-30163,PAYLOAD,U,23096V,2025-05-02 00:43:37,756704,15.16309097,0.0011516,42.9976,108.3425,120.3604,239.8383,0,999,9992,0.0042519,0.00084783,0,4716995,0 STARLINK-30163,1 57309U 23096V   25122.03029811  .00084783  00000-0  42519-2 0  9993,2 57309  42.9976 108.3425 0011516 120.3604 239.8383 15.16309097 99922,2023-096V,57309,6895.144,94.967,524.950,509.069,1
GENERATED VIA SPACETRACK.ORG API,18 SPCS,57309,STARLINK-30163,PAYLOAD,U,23096V,2025-05-03 14:39:57,146976,15.1661923,0.0012169,42.998,99.5656,132.9628,227.2242,0,999,10016,0.004329,0.00087139,0,4717971,0 STARLINK-30163,1 57309U 23096V   25123.61107809  .00087139  00000-0  43290-2 0  9997,2 57309  42.9980  99.5656 0012169 132.9628 227.2242 15.16619230100161,2023-096V,57309,6894.204,94.948,524.459,507.680,1
GENERATED VIA SPACETRACK.ORG API,18 SPCS,57309,STARLINK-30163,PAYLOAD,U,23096V,2025-05-03 14:39:57,146976,15.1661923,0.0012169,42.998,99.5656,132.9628,227.2242,0,999,10013,0.004329,0.00087139,0,4718121,0 STARLINK-30163,1 57309U 23096V   25123.61107809  .00087139  00000-0  43290-2 0  9997,2 57309  42.9980  99.5656 0012169 132.9628 227.2242 15.16619230100138,2023-096V,57309,6894.204,94.948,524.459,507.680,1
GENERATED VIA SPACETRACK.ORG API,18 SPCS,57309,STARLINK-30163,PAYLOAD,U,23096V,2025-05-03 22:34:08,34528,15.16661843,0.0012102,42.9984,97.7375,135.1197,225.0631,0,999,10021,0.0035131,0.00070596,0,4718307,0 STARLINK-30163,1 57309U 23096V   25123.94037077  .00070596  00000-0  35131-2 0  9996,2 57309  42.9984  97.7375 0012102 135.1197 225.0631 15.16661843100217,2023-096V,57309,6894.075,94.945,524.283,507.597,1
GENERATED VIA SPACETRACK.ORG API,18 SPCS,57309,STARLINK-30163,PAYLOAD,U,23096V,2025-05-04 06:00:02,160,15.16690307,0.0012106,42.9991,96.0202,137.1351,115.7264,0,999,10023,0.0040964,0.00082559,0,4718532,0 STARLINK-30163,1 57309U 23096V   25124.25002315  .00082559  00000-0  40964-2 0  9990,2 57309  42.9991  96.0202 0012106 137.1351 115.7264 15.16690307100230,2023-096V,57309,6893.989,94.944,524.200,507.508,1
GENERATED VIA SPACETRACK.ORG API,18 SPCS,57309,STARLINK-30163,PAYLOAD,U,23096V,2025-05-04 14:00:01,999872,15.16753046,0.001212,42.9994,94.1665,140.2793,134.7281,0,999,10028,0.00078907,0.00015594,0,4718903,0 STARLINK-30163,1 57309U 23096V   25124.58335648  .00015594  00000-0  78907-3 0  9998,2 57309  42.9994  94.1665 0012120 140.2793 134.7281 15.16753046100281,2023-096V,57309,6893.799,94.940,524.019,507.308,1
GENERATED VIA SPACETRACK.ORG API,18 SPCS,57309,STARLINK-30163,PAYLOAD,U,23096V,2025-05-04 14:00:01,999872,15.16753046,0.001212,42.9994,94.1665,140.2793,134.7281,0,999,577,0.00078907,0.00015594,0,4719080,0 STARLINK-30163,1 57309U 23096V   25124.58335648  .00015594  00000-0  78907-3 0  9998,2 57309  42.9994  94.1665 0012120 140.2793 134.7281 15.16753046  5779,2023-096V,57309,6893.799,94.940,524.019,507.308,1
GENERATED VIA SPACETRACK.ORG API,18 SPCS,57309,STARLINK-30163,PAYLOAD,U,23096V,2025-05-04 22:00:01,999584,15.16770213,0.0012451,42.9991,92.3151,142.8163,154.427,0,999,582,0.0037861,0.00076406,0,4719334,0 STARLINK-30163,1 57309U 23096V   25124.91668981  .00076406  00000-0  37861-2 0  9996,2 57309  42.9991  92.3151 0012451 142.8163 154.4270 15.16770213  5820,2023-096V,57309,6893.747,94.939,524.195,507.028,1
GENERATED VIA SPACETRACK.ORG API,18 SPCS,57309,STARLINK-30163,PAYLOAD,U,23096V,2025-05-05 06:00:02,160,15.16803221,0.0012337,42.999,90.4656,144.3112,175.2048,0,999,10038,0.0038709,0.00078213,0,4719462,0 STARLINK-30163,1 57309U 23096V   25125.25002315  .00078213  00000-0  38709-2 0  9997,2 57309  42.9990  90.4656 0012337 144.3112 175.2048 15.16803221100389,2023-096V,57309,6893.647,94.937,524.016,507.007,1
GENERATED VIA SPACETRACK.ORG API,18 SPCS,57309,STARLINK-30163,PAYLOAD,U,23096V,2025-05-05 08:00:01,999872,15.1681119,0.0012327,42.9991,90.0024,145.1102,269.9941,0,999,10039,0.00603,0.00122744,0,4719779,0 STARLINK-30163,1 57309U 23096V   25125.33335648  .00122744  00000-0  60300-2 0  9995,2 57309  42.9991  90.0024 0012327 145.1102 269.9941 15.16811190100390,2023-096V,57309,6893.622,94.936,523.985,506.990,1
GENERATED VIA SPACETRACK.ORG API,18 SPCS,57309,STARLINK-30163,PAYLOAD,U,23096V,2025-05-05 14:04:51,362976,15.16869173,0.0012469,42.9983,88.5936,147.1309,213.0317,0,999,10043,0.003448,0.00069696,0,4720236,0 STARLINK-30163,1 57309U 23096V   25125.58670559  .00069696  00000-0  34480-2 0  9991,2 57309  42.9983  88.5936 0012469 147.1309 213.0317 15.16869173100439,2023-096V,57309,6893.447,94.932,523.907,506.716,1
GENERATED VIA SPACETRACK.ORG API,18 SPCS,57309,STARLINK-30163,PAYLOAD,U,23096V,2025-05-05 14:04:51,362976,15.16869173,0.0012469,42.9983,88.5936,147.1309,213.0317,0,999,10046,0.003448,0.00069696,0,4720394,0 STARLINK-30163,1 57309U 23096V   25125.58670559  .00069696  00000-0  34480-2 0  9991,2 57309  42.9983  88.5936 0012469 147.1309 213.0317 15.16869173100462,2023-096V,57309,6893.447,94.932,523.907,506.716,1
